[
  {
    "name": "PLEIADES NEO 3",
    "line1": "1 48268U 21034A   26019.41159130 -.00000115  00000+0 -80234-5 0  9990",
    "line2": "2 48268  97.8944  96.3132 0001330  90.4552 269.6814 14.81671890255628",
    "catNr": 48268
  },
  {
    "name": "PLEIADES NEO 4",
    "line1": "1 49070U 21073E   26020.32326689  .00001173  00000+0  15565-3 0  9998",
    "line2": "2 49070  97.8948  97.2077 0001401  92.8568 267.2806 14.81675434239472",
    "catNr": 49070
  }
]